start=new Date('2023-04-21T00:00:00.000Z').valueOf();
sats=[{"EPHEMERIS_TYPE":"0","MEAN_ELEMENT_THEORY":"SGP4","BSTAR":"-0.01897400000000","DECAY_DATE":null,"MEAN_MOTION_DOT":"-0.00882150","MEAN_ANOMALY":"106.7021","INCLINATION":"42.9990","ELEMENT_SET_NO":"999","CLASSIFICATION_TYPE":"U","NORAD_CAT_ID":"55614","ECCENTRICITY":"0.00014640","TLE_LINE2":"2 55614  42.9990 308.8036 0001464 280.2864 106.7021 15.46259475  1308","PERIAPSIS":"426.685","REF_FRAME":"TEME","PERIOD":"93.128","SEMIMAJOR_AXIS":"6805.817","CENTER_NAME":"EARTH","LAUNCH_DATE":"2023-02-12","OBJECT_NAME":"STARLINK-5714","SITE":"AFETR","RCS_SIZE":"LARGE","COUNTRY_CODE":"US","EPOCH":"2023-04-20T22:00:00.999936","APOAPSIS":"428.678","REV_AT_EPOCH":"130","RA_OF_ASC_NODE":"308.8036","ARG_OF_PERICENTER":"280.2864","TIME_SYSTEM":"UTC","GP_ID":"230464278","FILE":"3891109","OBJECT_TYPE":"PAYLOAD","OBJECT_ID":"2023-020AX","MEAN_MOTION":"15.46259475","TLE_LINE1":"1 55614U 23020AX  23110.91667824 -.00882150  00000-0 -18974-1 0  9994","MEAN_MOTION_DDOT":"0.0000000000000"},{"GP_ID":"230464529","FILE":"3891109","OBJECT_TYPE":"PAYLOAD","OBJECT_ID":"2023-020AY","MEAN_MOTION":"15.08552613","TLE_LINE1":"1 55615U 23020AY  23110.91667824 -.00896485  00000-0 -60920-1 0  9999","MEAN_MOTION_DDOT":"0.0000000000000","REV_AT_EPOCH":"130","RA_OF_ASC_NODE":"317.7457","ARG_OF_PERICENTER":"271.0326","TIME_SYSTEM":"UTC","COUNTRY_CODE":"US","APOAPSIS":"541.479","EPOCH":"2023-04-20T22:00:00.999936","OBJECT_NAME":"STARLINK-5712","SITE":"AFETR","RCS_SIZE":"LARGE","PERIOD":"95.456","SEMIMAJOR_AXIS":"6918.759","CENTER_NAME":"EARTH","LAUNCH_DATE":"2023-02-12","ECCENTRICITY":"0.00012360","TLE_LINE2":"2 55615  42.9984 317.7457 0001236 271.0326  46.0574 15.08552613  1303","REF_FRAME":"TEME","PERIAPSIS":"539.769","MEAN_ANOMALY":"46.0574","INCLINATION":"42.9984","ELEMENT_SET_NO":"999","CLASSIFICATION_TYPE":"U","NORAD_CAT_ID":"55615","EPHEMERIS_TYPE":"0","BSTAR":"-0.06092000000000","MEAN_ELEMENT_THEORY":"SGP4","DECAY_DATE":null,"MEAN_MOTION_DOT":"-0.00896485"},{"REV_AT_EPOCH":"130","ARG_OF_PERICENTER":"276.3918","RA_OF_ASC_NODE":"317.6568","TIME_SYSTEM":"UTC","FILE":"3891109","GP_ID":"230463277","MEAN_MOTION":"15.09023682","OBJECT_ID":"2023-020AZ","OBJECT_TYPE":"PAYLOAD","MEAN_MOTION_DDOT":"0.0000000000000","TLE_LINE1":"1 55616U 23020AZ  23110.91667824 -.00899994  00000-0 -60387-1 0  9995","OBJECT_NAME":"STARLINK-5710","SITE":"AFETR","RCS_SIZE":"LARGE","COUNTRY_CODE":"US","EPOCH":"2023-04-20T22:00:00.999936","APOAPSIS":"540.087","ECCENTRICITY":"0.00013060","PERIAPSIS":"538.281","REF_FRAME":"TEME","TLE_LINE2":"2 55616  42.9980 317.6568 0001306 276.3918  77.7871 15.09023682  1306","SEMIMAJOR_AXIS":"6917.319","PERIOD":"95.426","CENTER_NAME":"EARTH","LAUNCH_DATE":"2023-02-12","EPHEMERIS_TYPE":"0","BSTAR":"-0.06038700000000","MEAN_ELEMENT_THEORY":"SGP4","MEAN_MOTION_DOT":"-0.00899994","DECAY_DATE":null,"MEAN_ANOMALY":"77.7871","ELEMENT_SET_NO":"999","INCLINATION":"42.9980","CLASSIFICATION_TYPE":"U","NORAD_CAT_ID":"55616"},{"EPHEMERIS_TYPE":"0","MEAN_ELEMENT_THEORY":"SGP4","BSTAR":"-0.06077800000000","DECAY_DATE":null,"MEAN_MOTION_DOT":"-0.00896531","MEAN_ANOMALY":"52.6162","INCLINATION":"42.9983","ELEMENT_SET_NO":"999","CLASSIFICATION_TYPE":"U","NORAD_CAT_ID":"55617","ECCENTRICITY":"0.00012480","TLE_LINE2":"2 55617  42.9983 317.7283 0001248 271.7068  52.6162 15.08639321  1302","PERIAPSIS":"539.495","REF_FRAME":"TEME","PERIOD":"95.450","SEMIMAJOR_AXIS":"6918.494","CENTER_NAME":"EARTH","LAUNCH_DATE":"2023-02-12","OBJECT_NAME":"STARLINK-5721","SITE":"AFETR","RCS_SIZE":"LARGE","COUNTRY_CODE":"US","EPOCH":"2023-04-20T22:00:00.999936","APOAPSIS":"541.222","REV_AT_EPOCH":"130","RA_OF_ASC_NODE":"317.7283","ARG_OF_PERICENTER":"271.7068","TIME_SYSTEM":"UTC","GP_ID":"230463527","FILE":"3891109","OBJECT_ID":"2023-020BA","OBJECT_TYPE":"PAYLOAD","MEAN_MOTION":"15.08639321","TLE_LINE1":"1 55617U 23020BA  23110.91667824 -.00896531  00000-0 -60778-1 0  9994","MEAN_MOTION_DDOT":"0.0000000000000"},{"OBJECT_NAME":"STARLINK-5717","SITE":"AFETR","RCS_SIZE":"LARGE","COUNTRY_CODE":"US","EPOCH":"2023-04-20T22:00:00.999936","APOAPSIS":"539.797","REV_AT_EPOCH":"130","ARG_OF_PERICENTER":"270.1345","RA_OF_ASC_NODE":"317.6396","TIME_SYSTEM":"UTC","FILE":"3891109","GP_ID":"230464778","MEAN_MOTION":"15.09109218","OBJECT_ID":"2023-020BB","OBJECT_TYPE":"PAYLOAD","MEAN_MOTION_DDOT":"0.0000000000000","TLE_LINE1":"1 55618U 23020BB  23110.91667824 -.00898429  00000-0 -60132-1 0  9997","EPHEMERIS_TYPE":"0","BSTAR":"-0.06013200000000","MEAN_ELEMENT_THEORY":"SGP4","MEAN_MOTION_DOT":"-0.00898429","DECAY_DATE":null,"MEAN_ANOMALY":"91.1990","ELEMENT_SET_NO":"999","INCLINATION":"42.9975","CLASSIFICATION_TYPE":"U","NORAD_CAT_ID":"55618","ECCENTRICITY":"0.00012640","PERIAPSIS":"538.048","REF_FRAME":"TEME","TLE_LINE2":"2 55618  42.9975 317.6396 0001264 270.1345  91.1990 15.09109218  1302","SEMIMAJOR_AXIS":"6917.058","PERIOD":"95.421","CENTER_NAME":"EARTH","LAUNCH_DATE":"2023-02-12"},{"EPHEMERIS_TYPE":"0","DECAY_DATE":null,"MEAN_MOTION_DOT":"-0.00898237","BSTAR":"-0.05987100000000","MEAN_ELEMENT_THEORY":"SGP4","INCLINATION":"42.9976","ELEMENT_SET_NO":"999","MEAN_ANOMALY":"99.2852","NORAD_CAT_ID":"55619","CLASSIFICATION_TYPE":"U","ECCENTRICITY":"0.00012670","TLE_LINE2":"2 55619  42.9976 317.6112 0001267 273.7804  99.2852 15.09258346  1305","PERIAPSIS":"537.591","REF_FRAME":"TEME","CENTER_NAME":"EARTH","PERIOD":"95.411","SEMIMAJOR_AXIS":"6916.602","LAUNCH_DATE":"2023-02-12","OBJECT_NAME":"STARLINK-5720","RCS_SIZE":"LARGE","SITE":"AFETR","COUNTRY_CODE":"US","APOAPSIS":"539.343","EPOCH":"2023-04-20T22:00:00.999936","RA_OF_ASC_NODE":"317.6112","ARG_OF_PERICENTER":"273.7804","REV_AT_EPOCH":"130","TIME_SYSTEM":"UTC","OBJECT_ID":"2023-020BC","OBJECT_TYPE":"PAYLOAD","MEAN_MOTION":"15.09258346","GP_ID":"230465029","FILE":"3891109","TLE_LINE1":"1 55619U 23020BC  23110.91667824 -.00898237  00000-0 -59871-1 0  9993","MEAN_MOTION_DDOT":"0.0000000000000"},{"TLE_LINE2":"2 55620  42.9983 317.4632 0001253 278.5535 156.4053 15.10084967  1306","REF_FRAME":"TEME","PERIAPSIS":"535.076","ECCENTRICITY":"0.00012530","LAUNCH_DATE":"2023-02-12","PERIOD":"95.359","SEMIMAJOR_AXIS":"6914.078","CENTER_NAME":"EARTH","BSTAR":"-0.05787600000000","MEAN_ELEMENT_THEORY":"SGP4","DECAY_DATE":null,"MEAN_MOTION_DOT":"-0.00889116","EPHEMERIS_TYPE":"0","CLASSIFICATION_TYPE":"U","NORAD_CAT_ID":"55620","MEAN_ANOMALY":"156.4053","INCLINATION":"42.9983","ELEMENT_SET_NO":"999","TIME_SYSTEM":"UTC","REV_AT_EPOCH":"130","RA_OF_ASC_NODE":"317.4632","ARG_OF_PERICENTER":"278.5535","TLE_LINE1":"1 55620U 23020BD  23110.91667824 -.00889116  00000-0 -57876-1 0  9994","MEAN_MOTION_DDOT":"0.0000000000000","GP_ID":"230463777","FILE":"3891109","OBJECT_TYPE":"PAYLOAD","OBJECT_ID":"2023-020BD","MEAN_MOTION":"15.10084967","SITE":"AFETR","RCS_SIZE":"LARGE","OBJECT_NAME":"STARLINK-5718","APOAPSIS":"536.809","EPOCH":"2023-04-20T22:00:00.999936","COUNTRY_CODE":"US"},{"COUNTRY_CODE":"US","EPOCH":"2023-04-20T22:00:00.999936","APOAPSIS":"540.373","OBJECT_NAME":"STARLINK-5709","RCS_SIZE":"LARGE","SITE":"AFETR","OBJECT_ID":"2023-020BE","OBJECT_TYPE":"PAYLOAD","MEAN_MOTION":"15.08920298","GP_ID":"230464027","FILE":"3891109","TLE_LINE1":"1 55621U 23020BE  23110.91667824 -.00896795  00000-0 -60328-1 0  9992","MEAN_MOTION_DDOT":"0.0000000000000","RA_OF_ASC_NODE":"317.6765","ARG_OF_PERICENTER":"274.3143","REV_AT_EPOCH":"130","TIME_SYSTEM":"UTC","INCLINATION":"42.9987","ELEMENT_SET_NO":"999","MEAN_ANOMALY":"71.6248","NORAD_CAT_ID":"55621","CLASSIFICATION_TYPE":"U","EPHEMERIS_TYPE":"0","DECAY_DATE":null,"MEAN_MOTION_DOT":"-0.00896795","MEAN_ELEMENT_THEORY":"SGP4","BSTAR":"-0.06032800000000","CENTER_NAME":"EARTH","PERIOD":"95.432","SEMIMAJOR_AXIS":"6917.635","LAUNCH_DATE":"2023-02-12","ECCENTRICITY":"0.00012620","TLE_LINE2":"2 55621  42.9987 317.6765 0001262 274.3143  71.6248 15.08920298  1306","REF_FRAME":"TEME","PERIAPSIS":"538.627"},{"MEAN_MOTION":"15.09338123","OBJECT_ID":"2023-020BF","OBJECT_TYPE":"PAYLOAD","FILE":"3891109","GP_ID":"230464279","MEAN_MOTION_DDOT":"0.0000000000000","TLE_LINE1":"1 55622U 23020BF  23110.91667824 -.00888831  00000-0 -59065-1 0  9991","ARG_OF_PERICENTER":"281.4326","RA_OF_ASC_NODE":"317.5948","REV_AT_EPOCH":"130","TIME_SYSTEM":"UTC","COUNTRY_CODE":"US","EPOCH":"2023-04-20T22:00:00.999936","APOAPSIS":"539.136","OBJECT_NAME":"STARLINK-5702","RCS_SIZE":"LARGE","SITE":"AFETR","CENTER_NAME":"EARTH","SEMIMAJOR_AXIS":"6916.358","PERIOD":"95.406","LAUNCH_DATE":"2023-02-12","ECCENTRICITY":"0.00013190","REF_FRAME":"TEME","PERIAPSIS":"537.311","TLE_LINE2":"2 55622  42.9983 317.5948 0001319 281.4326  98.5879 15.09338123  1309","ELEMENT_SET_NO":"999","INCLINATION":"42.9983","MEAN_ANOMALY":"98.5879","NORAD_CAT_ID":"55622","CLASSIFICATION_TYPE":"U","EPHEMERIS_TYPE":"0","MEAN_MOTION_DOT":"-0.00888831","DECAY_DATE":null,"MEAN_ELEMENT_THEORY":"SGP4","BSTAR":"-0.05906500000000"},{"MEAN_MOTION":"15.10226109","OBJECT_TYPE":"PAYLOAD","OBJECT_ID":"2023-020BG","FILE":"3891109","GP_ID":"230464530","MEAN_MOTION_DDOT":"0.0000000000000","TLE_LINE1":"1 55623U 23020BG  23110.91667824 -.00888948  00000-0 -57638-1 0  9995","ARG_OF_PERICENTER":"280.6505","RA_OF_ASC_NODE":"317.4368","REV_AT_EPOCH":"130","TIME_SYSTEM":"UTC","COUNTRY_CODE":"US","EPOCH":"2023-04-20T22:00:00.999936","APOAPSIS":"536.371","OBJECT_NAME":"STARLINK-5698","RCS_SIZE":"LARGE","SITE":"AFETR","CENTER_NAME":"EARTH","SEMIMAJOR_AXIS":"6913.647","PERIOD":"95.350","LAUNCH_DATE":"2023-02-12","ECCENTRICITY":"0.00012430","REF_FRAME":"TEME","PERIAPSIS":"534.652","TLE_LINE2":"2 55623  42.9983 317.4368 0001243 280.6505 165.1912 15.10226109  1302","ELEMENT_SET_NO":"999","INCLINATION":"42.9983","MEAN_ANOMALY":"165.1912","NORAD_CAT_ID":"55623","CLASSIFICATION_TYPE":"U","EPHEMERIS_TYPE":"0","MEAN_MOTION_DOT":"-0.00888948","DECAY_DATE":null,"MEAN_ELEMENT_THEORY":"SGP4","BSTAR":"-0.05763800000000"}];
